MALLIGYONG-1            
1 58400U 23179A   24064.18141685  .00007909  00000+0  35659-3 0  9994
2 58400  97.4187 312.5964 0007777 271.0500  88.9845 15.21271710 15755
